{
  "type": "FeatureCollection",
  "features": [
    {
      "type": "Feature",
      "properties": {
        "norad_id": 67103,
        "name": "STARLINK-36256",
        "group": "last-30-days",
        "lat": -41.300022892049924,
        "lon": 130.1129308092695,
        "alt_km": 322.6088150319447,
        "timestamp": "2025-12-25T07:41:08.452804+00:00",
        "meta_object_name": "STARLINK-36256",
        "meta_object_id": "2025-299B",
        "meta_epoch": "2025-12-24T22:00:03.000096",
        "meta_mean_motion": 15.85101619,
        "meta_eccentricity": 0.00014863,
        "meta_inclination": 42.9966,
        "meta_ra_of_asc_node": 242.0502,
        "meta_arg_of_pericenter": 275.8727,
        "meta_mean_anomaly": 195.2355,
        "meta_ephemeris_type": 0,
        "meta_classification_type": "U",
        "meta_norad_cat_id": 67103,
        "meta_element_set_no": 999,
        "meta_rev_at_epoch": 276,
        "meta_bstar": -0.0084501969,
        "meta_mean_motion_dot": -0.01775828,
        "meta_mean_motion_ddot": 0,
        "tle_line1": "1 67103U 25299B   25358.91670139 -.01775828  00000+0 -84502-2 0  9993",
        "tle_line2": "2 67103  42.9966 242.0502 0001486 275.8727 195.2355 15.85101619  2769"
      },
      "geometry": {
        "type": "Point",
        "coordinates": [
          130.1129308092695,
          -41.300022892049924
        ]
      }
    },
    {
      "type": "Feature",
      "properties": {
        "norad_id": 67104,
        "name": "STARLINK-36258",
        "group": "last-30-days",
        "lat": -41.6200161745655,
        "lon": 132.03735929010975,
        "alt_km": 322.54209544508103,
        "timestamp": "2025-12-25T07:41:08.452816+00:00",
        "meta_object_name": "STARLINK-36258",
        "meta_object_id": "2025-299C",
        "meta_epoch": "2025-12-24T22:00:03.000096",
        "meta_mean_motion": 15.85118639,
        "meta_eccentricity": 0.00015599,
        "meta_inclination": 42.9966,
        "meta_ra_of_asc_node": 242.0464,
        "meta_arg_of_pericenter": 277.3972,
        "meta_mean_anomaly": 195.1725,
        "meta_ephemeris_type": 0,
        "meta_classification_type": "U",
        "meta_norad_cat_id": 67104,
        "meta_element_set_no": 999,
        "meta_rev_at_epoch": 276,
        "meta_bstar": -0.0084682523,
        "meta_mean_motion_dot": -0.01780417,
        "meta_mean_motion_ddot": 0,
        "tle_line1": "1 67104U 25299C   25358.91670139 -.01780417  00000+0 -84683-2 0  9994",
        "tle_line2": "2 67104  42.9966 242.0464 0001559 277.3972 195.1725 15.85118639  2767"
      },
      "geometry": {
        "type": "Point",
        "coordinates": [
          132.03735929010975,
          -41.6200161745655
        ]
      }
    },
    {
      "type": "Feature",
      "properties": {
        "norad_id": 67105,
        "name": "STARLINK-36261",
        "group": "last-30-days",
        "lat": -41.864163316661255,
        "lon": 133.67220736481985,
        "alt_km": 322.50383267436155,
        "timestamp": "2025-12-25T07:41:08.452827+00:00",
        "meta_object_name": "STARLINK-36261",
        "meta_object_id": "2025-299D",
        "meta_epoch": "2025-12-24T22:00:03.000096",
        "meta_mean_motion": 15.85139117,
        "meta_eccentricity": 0.00014994,
        "meta_inclination": 42.9965,
        "meta_ra_of_asc_node": 242.0434,
        "meta_arg_of_pericenter": 276.4236,
        "meta_mean_anomaly": 197.3609,
        "meta_ephemeris_type": 0,
        "meta_classification_type": "U",
        "meta_norad_cat_id": 67105,
        "meta_element_set_no": 999,
        "meta_rev_at_epoch": 276,
        "meta_bstar": -0.0084422158,
        "meta_mean_motion_dot": -0.017772,
        "meta_mean_motion_ddot": 0,
        "tle_line1": "1 67105U 25299D   25358.91670139 -.01777200  00000+0 -84422-2 0  9992",
        "tle_line2": "2 67105  42.9965 242.0434 0001499 276.4236 197.3609 15.85139117  2769"
      },
      "geometry": {
        "type": "Point",
        "coordinates": [
          133.67220736481985,
          -41.864163316661255
        ]
      }
    },
    {
      "type": "Feature",
      "properties": {
        "norad_id": 67106,
        "name": "STARLINK-36259",
        "group": "last-30-days",
        "lat": -42.39494643491589,
        "lon": 138.03617409695715,
        "alt_km": 322.43031439856077,
        "timestamp": "2025-12-25T07:41:08.452836+00:00",
        "meta_object_name": "STARLINK-36259",
        "meta_object_id": "2025-299E",
        "meta_epoch": "2025-12-24T22:00:03.000096",
        "meta_mean_motion": 15.85162396,
        "meta_eccentricity": 0.00014746,
        "meta_inclination": 42.9967,
        "meta_ra_of_asc_node": 242.0354,
        "meta_arg_of_pericenter": 268.9336,
        "meta_mean_anomaly": 208.1081,
        "meta_ephemeris_type": 0,
        "meta_classification_type": "U",
        "meta_norad_cat_id": 67106,
        "meta_element_set_no": 999,
        "meta_rev_at_epoch": 276,
        "meta_bstar": -0.0084713869,
        "meta_mean_motion_dot": -0.01784155,
        "meta_mean_motion_ddot": 0,
        "tle_line1": "1 67106U 25299E   25358.91670139 -.01784155  00000+0 -84714-2 0  9994",
        "tle_line2": "2 67106  42.9967 242.0354 0001474 268.9336 208.1081 15.85162396  2763"
      },
      "geometry": {
        "type": "Point",
        "coordinates": [
          138.03617409695715,
          -42.39494643491589
        ]
      }
    },
    {
      "type": "Feature",
      "properties": {
        "norad_id": 67107,
        "name": "STARLINK-36196",
        "group": "last-30-days",
        "lat": -42.137092156574084,
        "lon": 135.73610381902978,
        "alt_km": 322.46910961000594,
        "timestamp": "2025-12-25T07:41:08.452846+00:00",
        "meta_object_name": "STARLINK-36196",
        "meta_object_id": "2025-299F",
        "meta_epoch": "2025-12-24T22:00:03.000096",
        "meta_mean_motion": 15.85148765,
        "meta_eccentricity": 0.0001486,
        "meta_inclination": 42.9967,
        "meta_ra_of_asc_node": 242.0397,
        "meta_arg_of_pericenter": 274.9711,
        "meta_mean_anomaly": 200.3601,
        "meta_ephemeris_type": 0,
        "meta_classification_type": "U",
        "meta_norad_cat_id": 67107,
        "meta_element_set_no": 999,
        "meta_rev_at_epoch": 276,
        "meta_bstar": -0.0084305834,
        "meta_mean_motion_dot": -0.01775811,
        "meta_mean_motion_ddot": 0,
        "tle_line1": "1 67107U 25299F   25358.91670139 -.01775811  00000+0 -84306-2 0  9991",
        "tle_line2": "2 67107  42.9967 242.0397 0001486 274.9711 200.3601 15.85148765  2764"
      },
      "geometry": {
        "type": "Point",
        "coordinates": [
          135.73610381902978,
          -42.137092156574084
        ]
      }
    },
    {
      "type": "Feature",
      "properties": {
        "norad_id": 67108,
        "name": "STARLINK-36208",
        "group": "last-30-days",
        "lat": -42.60499170669614,
        "lon": 140.3359785654765,
        "alt_km": 322.47459969941974,
        "timestamp": "2025-12-25T07:41:08.452856+00:00",
        "meta_object_name": "STARLINK-36208",
        "meta_object_id": "2025-299G",
        "meta_epoch": "2025-12-24T22:00:03.000096",
        "meta_mean_motion": 15.85165745,
        "meta_eccentricity": 0.0001384,
        "meta_inclination": 42.9968,
        "meta_ra_of_asc_node": 242.0309,
        "meta_arg_of_pericenter": 269.167,
        "meta_mean_anomaly": 209.5801,
        "meta_ephemeris_type": 0,
        "meta_classification_type": "U",
        "meta_norad_cat_id": 67108,
        "meta_element_set_no": 999,
        "meta_rev_at_epoch": 276,
        "meta_bstar": -0.0084441376,
        "meta_mean_motion_dot": -0.01779408,
        "meta_mean_motion_ddot": 0,
        "tle_line1": "1 67108U 25299G   25358.91670139 -.01779408  00000+0 -84441-2 0  9998",
        "tle_line2": "2 67108  42.9968 242.0309 0001384 269.1670 209.5801 15.85165745  2766"
      },
      "geometry": {
        "type": "Point",
        "coordinates": [
          140.3359785654765,
          -42.60499170669614
        ]
      }
    },
    {
      "type": "Feature",
      "properties": {
        "norad_id": 67109,
        "name": "STARLINK-35764",
        "group": "last-30-days",
        "lat": -42.77921624342629,
        "lon": 142.8300719755155,
        "alt_km": 322.43585659328255,
        "timestamp": "2025-12-25T07:41:08.452869+00:00",
        "meta_object_name": "STARLINK-35764",
        "meta_object_id": "2025-299H",
        "meta_epoch": "2025-12-24T22:00:03.000096",
        "meta_mean_motion": 15.85174576,
        "meta_eccentricity": 0.00014358,
        "meta_inclination": 42.9968,
        "meta_ra_of_asc_node": 242.0262,
        "meta_arg_of_pericenter": 270.0645,
        "meta_mean_anomaly": 210.5221,
        "meta_ephemeris_type": 0,
        "meta_classification_type": "U",
        "meta_norad_cat_id": 67109,
        "meta_element_set_no": 999,
        "meta_rev_at_epoch": 265,
        "meta_bstar": -0.008474979,
        "meta_mean_motion_dot": -0.0178567,
        "meta_mean_motion_ddot": 0,
        "tle_line1": "1 67109U 25299H   25358.91670139 -.01785670  00000+0 -84750-2 0  9990",
        "tle_line2": "2 67109  42.9968 242.0262 0001435 270.0645 210.5221 15.85174576  2653"
      },
      "geometry": {
        "type": "Point",
        "coordinates": [
          142.8300719755155,
          -42.77921624342629
        ]
      }
    }
  ]
}